STARLINK-1757
1 26339C 20062R   21325.16044135  .00138130  00000-0  44988-3 0  3257
2 26339  53.0476 159.2907 0001482  51.5089 338.8897 15.89821754    15
